[{"OBJECT_NAME":"ONEWEB-0197","OBJECT_ID":"2021-031AC","EPOCH":"2025-12-01T13:09:54.008064","MEAN_MOTION":13.14503429,"ECCENTRICITY":0.0001559,"INCLINATION":87.8983,"RA_OF_ASC_NODE":329.0655,"ARG_OF_PERICENTER":97.1395,"MEAN_ANOMALY":262.9912,"EPHEMERIS_TYPE":0,"CLASSIFICATION_TYPE":"U","NORAD_CAT_ID":48236,"ELEMENT_SET_NO":999,"REV_AT_EPOCH":22222,"BSTAR":-0.00049782,"MEAN_MOTION_DOT":-1.72e-6,"MEAN_MOTION_DDOT":0},{"OBJECT_NAME":"ONEWEB-0194","OBJECT_ID":"2021-031AD","EPOCH":"2025-12-01T16:19:37.958880","MEAN_MOTION":13.14502717,"ECCENTRICITY":0.0002029,"INCLINATION":87.8986,"RA_OF_ASC_NODE":329.056,"ARG_OF_PERICENTER":90.684,"MEAN_ANOMALY":269.4522,"EPHEMERIS_TYPE":0,"CLASSIFICATION_TYPE":"U","NORAD_CAT_ID":48237,"ELEMENT_SET_NO":999,"REV_AT_EPOCH":22241,"BSTAR":0.00065773,"MEAN_MOTION_DOT":2.57e-6,"MEAN_MOTION_DDOT":0},{"OBJECT_NAME":"ONEWEB-0193","OBJECT_ID":"2021-031AE","EPOCH":"2025-12-01T16:42:27.936288","MEAN_MOTION":13.14503948,"ECCENTRICITY":0.0002195,"INCLINATION":87.8983,"RA_OF_ASC_NODE":329.048,"ARG_OF_PERICENTER":94.3316,"MEAN_ANOMALY":265.8064,"EPHEMERIS_TYPE":0,"CLASSIFICATION_TYPE":"U","NORAD_CAT_ID":48238,"ELEMENT_SET_NO":999,"REV_AT_EPOCH":22236,"BSTAR":-0.00011426,"MEAN_MOTION_DOT":-3.0e-7,"MEAN_MOTION_DDOT":0},{"OBJECT_NAME":"ONEWEB-0191","OBJECT_ID":"2021-031AF","EPOCH":"2025-12-01T11:29:36.168576","MEAN_MOTION":13.14500183,"ECCENTRICITY":0.0001797,"INCLINATION":87.8993,"RA_OF_ASC_NODE":329.0799,"ARG_OF_PERICENTER":91.2385,"MEAN_ANOMALY":268.8951,"EPHEMERIS_TYPE":0,"CLASSIFICATION_TYPE":"U","NORAD_CAT_ID":48239,"ELEMENT_SET_NO":999,"REV_AT_EPOCH":22219,"BSTAR":-0.00048677,"MEAN_MOTION_DOT":-1.68e-6,"MEAN_MOTION_DDOT":0},{"OBJECT_NAME":"ONEWEB-0195","OBJECT_ID":"2021-031AG","EPOCH":"2025-12-01T12:46:06.287808","MEAN_MOTION":13.14501167,"ECCENTRICITY":0.0001765,"INCLINATION":87.8996,"RA_OF_ASC_NODE":329.0656,"ARG_OF_PERICENTER":74.7862,"MEAN_ANOMALY":285.3463,"EPHEMERIS_TYPE":0,"CLASSIFICATION_TYPE":"U","NORAD_CAT_ID":48240,"ELEMENT_SET_NO":999,"REV_AT_EPOCH":22218,"BSTAR":0.00018481,"MEAN_MOTION_DOT":8.1e-7,"MEAN_MOTION_DDOT":0},{"OBJECT_NAME":"ONEWEB-0201","OBJECT_ID":"2021-031AH","EPOCH":"2025-12-01T12:29:11.982912","MEAN_MOTION":13.14501238,"ECCENTRICITY":0.0001442,"INCLINATION":87.8977,"RA_OF_ASC_NODE":329.1091,"ARG_OF_PERICENTER":86.2469,"MEAN_ANOMALY":273.8825,"EPHEMERIS_TYPE":0,"CLASSIFICATION_TYPE":"U","NORAD_CAT_ID":48241,"ELEMENT_SET_NO":999,"REV_AT_EPOCH":22241,"BSTAR":0.0007517,"MEAN_MOTION_DOT":2.91e-6,"MEAN_MOTION_DDOT":0},{"OBJECT_NAME":"ONEWEB-0207","OBJECT_ID":"2021-031AJ","EPOCH":"2025-12-01T17:29:16.649088","MEAN_MOTION":13.14501926,"ECCENTRICITY":0.0001522,"INCLINATION":87.8995,"RA_OF_ASC_NODE":329.0281,"ARG_OF_PERICENTER":90.1787,"MEAN_ANOMALY":269.9518,"EPHEMERIS_TYPE":0,"CLASSIFICATION_TYPE":"U","NORAD_CAT_ID":48242,"ELEMENT_SET_NO":999,"REV_AT_EPOCH":22235,"BSTAR":0.00027415,"MEAN_MOTION_DOT":1.14e-6,"MEAN_MOTION_DDOT":0},{"OBJECT_NAME":"ONEWEB-0208","OBJECT_ID":"2021-031AK","EPOCH":"2025-12-01T17:03:01.224576","MEAN_MOTION":13.14503172,"ECCENTRICITY":0.0001773,"INCLINATION":87.8986,"RA_OF_ASC_NODE":329.0476,"ARG_OF_PERICENTER":81.4999,"MEAN_ANOMALY":278.6332,"EPHEMERIS_TYPE":0,"CLASSIFICATION_TYPE":"U","NORAD_CAT_ID":48243,"ELEMENT_SET_NO":999,"REV_AT_EPOCH":22236,"BSTAR":-0.00053408,"MEAN_MOTION_DOT":-1.85e-6,"MEAN_MOTION_DDOT":0},{"OBJECT_NAME":"ONEWEB-0200","OBJECT_ID":"2021-031AL","EPOCH":"2025-12-01T12:31:17.114304","MEAN_MOTION":13.14502677,"ECCENTRICITY":0.0001712,"INCLINATION":87.8983,"RA_OF_ASC_NODE":329.0746,"ARG_OF_PERICENTER":85.0354,"MEAN_ANOMALY":275.0971,"EPHEMERIS_TYPE":0,"CLASSIFICATION_TYPE":"U","NORAD_CAT_ID":48244,"ELEMENT_SET_NO":999,"REV_AT_EPOCH":22226,"BSTAR":0.00073434,"MEAN_MOTION_DOT":2.85e-6,"MEAN_MOTION_DDOT":0},{"OBJECT_NAME":"ONEWEB-0217","OBJECT_ID":"2021-031AM","EPOCH":"2025-12-01T16:33:20.045376","MEAN_MOTION":13.14503466,"ECCENTRICITY":0.0001796,"INCLINATION":87.8994,"RA_OF_ASC_NODE":329.0346,"ARG_OF_PERICENTER":77.9667,"MEAN_ANOMALY":282.1664,"EPHEMERIS_TYPE":0,"CLASSIFICATION_TYPE":"U","NORAD_CAT_ID":48245,"ELEMENT_SET_NO":999,"REV_AT_EPOCH":22223,"BSTAR":0.00023974,"MEAN_MOTION_DOT":1.02e-6,"MEAN_MOTION_DDOT":0},{"OBJECT_NAME":"ONEWEB-0211","OBJECT_ID":"2021-045A","EPOCH":"2025-12-01T20:07:29.717760","MEAN_MOTION":13.16136226,"ECCENTRICITY":0.0002048,"INCLINATION":87.9004,"RA_OF_ASC_NODE":298.4981,"ARG_OF_PERICENTER":71.1598,"MEAN_ANOMALY":288.9755,"EPHEMERIS_TYPE":0,"CLASSIFICATION_TYPE":"U","NORAD_CAT_ID":48767,"ELEMENT_SET_NO":999,"REV_AT_EPOCH":21848,"BSTAR":0.00055179,"MEAN_MOTION_DOT":2.22e-6,"MEAN_MOTION_DDOT":0},{"OBJECT_NAME":"ONEWEB-0223","OBJECT_ID":"2021-045B","EPOCH":"2025-12-01T19:47:17.162016","MEAN_MOTION":13.15547791,"ECCENTRICITY":0.0002284,"INCLINATION":87.8985,"RA_OF_ASC_NODE":298.5634,"ARG_OF_PERICENTER":77.1461,"MEAN_ANOMALY":282.9924,"EPHEMERIS_TYPE":0,"CLASSIFICATION_TYPE":"U","NORAD_CAT_ID":48768,"ELEMENT_SET_NO":999,"REV_AT_EPOCH":21845,"BSTAR":0.00026541,"MEAN_MOTION_DOT":1.13e-6,"MEAN_MOTION_DDOT":0},{"OBJECT_NAME":"ONEWEB-0230","OBJECT_ID":"2021-045C","EPOCH":"2025-12-01T15:27:10.323936","MEAN_MOTION":13.15548714,"ECCENTRICITY":0.0001821,"INCLINATION":87.8977,"RA_OF_ASC_NODE":298.6301,"ARG_OF_PERICENTER":87.1011,"MEAN_ANOMALY":273.0328,"EPHEMERIS_TYPE":0,"CLASSIFICATION_TYPE":"U","NORAD_CAT_ID":48769,"ELEMENT_SET_NO":999,"REV_AT_EPOCH":21869,"BSTAR":0.00017824,"MEAN_MOTION_DOT":8.0e-7,"MEAN_MOTION_DDOT":0},{"OBJECT_NAME":"ONEWEB-0237","OBJECT_ID":"2021-045D","EPOCH":"2025-12-01T15:11:11.841216","MEAN_MOTION":13.15548188,"ECCENTRICITY":0.0002121,"INCLINATION":87.8979,"RA_OF_ASC_NODE":298.632,"ARG_OF_PERICENTER":81.4991,"MEAN_ANOMALY":278.638,"EPHEMERIS_TYPE":0,"CLASSIFICATION_TYPE":"U","NORAD_CAT_ID":48770,"ELEMENT_SET_NO":999,"REV_AT_EPOCH":21841,"BSTAR":-3.1213e-5,"MEAN_MOTION_DOT":1.0e-8,"MEAN_MOTION_DDOT":0},{"OBJECT_NAME":"ONEWEB-0235","OBJECT_ID":"2021-045E","EPOCH":"2025-12-01T20:03:15.254208","MEAN_MOTION":13.15548527,"ECCENTRICITY":0.0002331,"INCLINATION":87.8987,"RA_OF_ASC_NODE":298.5622,"ARG_OF_PERICENTER":78.4087,"MEAN_ANOMALY":281.7305,"EPHEMERIS_TYPE":0,"CLASSIFICATION_TYPE":"U","NORAD_CAT_ID":48771,"ELEMENT_SET_NO":999,"REV_AT_EPOCH":21843,"BSTAR":3.1915e-5,"MEAN_MOTION_DOT":2.5e-7,"MEAN_MOTION_DDOT":0},{"OBJECT_NAME":"ONEWEB-0242","OBJECT_ID":"2021-045F","EPOCH":"2025-12-01T19:54:08.222976","MEAN_MOTION":13.15548407,"ECCENTRICITY":0.0002011,"INCLINATION":87.8989,"RA_OF_ASC_NODE":298.5565,"ARG_OF_PERICENTER":83.9106,"MEAN_ANOMALY":276.2253,"EPHEMERIS_TYPE":0,"CLASSIFICATION_TYPE":"U","NORAD_CAT_ID":48772,"ELEMENT_SET_NO":999,"REV_AT_EPOCH":21847,"BSTAR":0.00018585,"MEAN_MOTION_DOT":8.3e-7,"MEAN_MOTION_DDOT":0},{"OBJECT_NAME":"ONEWEB-0241","OBJECT_ID":"2021-045G","EPOCH":"2025-12-01T19:35:51.177120","MEAN_MOTION":13.15548235,"ECCENTRICITY":0.0002126,"INCLINATION":87.8977,"RA_OF_ASC_NODE":298.5977,"ARG_OF_PERICENTER":71.793,"MEAN_ANOMALY":288.3431,"EPHEMERIS_TYPE":0,"CLASSIFICATION_TYPE":"U","NORAD_CAT_ID":48773,"ELEMENT_SET_NO":999,"REV_AT_EPOCH":21838,"BSTAR":0.00036307,"MEAN_MOTION_DOT":1.5e-6,"MEAN_MOTION_DDOT":0}]
