ONEWEB-0197             
1 48236U 21031AC  25335.54854176 -.00000172  00000+0 -49782-3 0  9992
2 48236  87.8983 329.0655 0001559  97.1395 262.9912 13.14503429222225
ONEWEB-0194             
1 48237U 21031AD  25335.68030045  .00000257  00000+0  65773-3 0  9999
2 48237  87.8986 329.0560 0002029  90.6840 269.4522 13.14502717222419
ONEWEB-0193             
1 48238U 21031AE  25335.69615667 -.00000030  00000+0 -11426-3 0  9997
2 48238  87.8983 329.0480 0002195  94.3316 265.8064 13.14503948222363
ONEWEB-0191             
1 48239U 21031AF  25335.47889084 -.00000168  00000+0 -48677-3 0  9990
2 48239  87.8993 329.0799 0001797  91.2385 268.8951 13.14500183222194
ONEWEB-0195             
1 48240U 21031AG  25335.53201722  .00000081  00000+0  18481-3 0  9998
2 48240  87.8996 329.0656 0001765  74.7862 285.3463 13.14501167222186
ONEWEB-0201             
1 48241U 21031AH  25335.52027758  .00000291  00000+0  75170-3 0  9994
2 48241  87.8977 329.1091 0001442  86.2469 273.8825 13.14501238222412
ONEWEB-0207             
1 48242U 21031AJ  25335.72866492  .00000114  00000+0  27415-3 0  9996
2 48242  87.8995 329.0281 0001522  90.1787 269.9518 13.14501926222351
ONEWEB-0208             
1 48243U 21031AK  25335.71043084 -.00000185  00000+0 -53408-3 0  9991
2 48243  87.8986 329.0476 0001773  81.4999 278.6332 13.14503172222361
ONEWEB-0200             
1 48244U 21031AL  25335.52172586  .00000285  00000+0  73434-3 0  9991
2 48244  87.8983 329.0746 0001712  85.0354 275.0971 13.14502677222265
ONEWEB-0217             
1 48245U 21031AM  25335.68981534  .00000102  00000+0  23974-3 0  9992
2 48245  87.8994 329.0346 0001796  77.9667 282.1664 13.14503466222235
ONEWEB-0211             
1 48767U 21045A   25335.83853840  .00000222  00000+0  55179-3 0  9996
2 48767  87.9004 298.4981 0002048  71.1598 288.9755 13.16136226218486
ONEWEB-0223             
1 48768U 21045B   25335.82450419  .00000113  00000+0  26541-3 0  9991
2 48768  87.8985 298.5634 0002284  77.1461 282.9924 13.15547791218458
ONEWEB-0230             
1 48769U 21045C   25335.64386949  .00000080  00000+0  17824-3 0  9995
2 48769  87.8977 298.6301 0001821  87.1011 273.0328 13.15548714218691
ONEWEB-0237             
1 48770U 21045D   25335.63277594  .00000001  00000+0 -31213-4 0  9994
2 48770  87.8979 298.6320 0002121  81.4991 278.6380 13.15548188218418
ONEWEB-0235             
1 48771U 21045E   25335.83559322  .00000025  00000+0  31915-4 0  9993
2 48771  87.8987 298.5622 0002331  78.4087 281.7305 13.15548527218438
ONEWEB-0242             
1 48772U 21045F   25335.82926184  .00000083  00000+0  18585-3 0  9998
2 48772  87.8989 298.5565 0002011  83.9106 276.2253 13.15548407218477
ONEWEB-0241             
1 48773U 21045G   25335.81656455  .00000150  00000+0  36307-3 0  9996
2 48773  87.8977 298.5977 0002126  71.7930 288.3431 13.15548235218380
